start=new Date('2021-12-23T00:00:00.000Z').valueOf();
sats=[{"OBJECT_NAME":"STARLINK-2172","SEMIMAJOR_AXIS":"6885.985","REV_AT_EPOCH":"4538","OBJECT_TYPE":"PAYLOAD","ECCENTRICITY":"0.00011560","TLE_LINE2":"2 47755  53.0533 269.4332 0001156  72.0915 288.0205 15.19335389 45387","APOAPSIS":"508.646","MEAN_MOTION_DOT":"0.00074489","MEAN_ELEMENT_THEORY":"SGP4","SITE":"AFETR","DECAY_DATE":null,"EPOCH":"2021-12-22T17:38:57.200064","CENTER_NAME":"EARTH","TIME_SYSTEM":"UTC","LAUNCH_DATE":"2021-03-04","INCLINATION":"53.0533","TLE_LINE1":"1 47755U 21017AK  21356.73538426  .00074489  00000-0  34614-2 0  9996","MEAN_MOTION_DDOT":"0.0000000000000","BSTAR":"0.00346140000000","GP_ID":"192222509","REF_FRAME":"TEME","EPHEMERIS_TYPE":"0","ARG_OF_PERICENTER":"72.0915","PERIAPSIS":"507.054","RCS_SIZE":"LARGE","OBJECT_ID":"2021-017AK","ELEMENT_SET_NO":"999","CLASSIFICATION_TYPE":"U","COUNTRY_CODE":"US","MEAN_ANOMALY":"288.0205","MEAN_MOTION":"15.19335389","NORAD_CAT_ID":"47755","PERIOD":"94.778","RA_OF_ASC_NODE":"269.4332","FILE":"3247571"},{"TIME_SYSTEM":"UTC","LAUNCH_DATE":"2021-03-04","CENTER_NAME":"EARTH","INCLINATION":"53.0564","MEAN_ELEMENT_THEORY":"SGP4","EPOCH":"2021-12-22T16:08:32.366112","DECAY_DATE":null,"SITE":"AFETR","ECCENTRICITY":"0.00021560","OBJECT_TYPE":"PAYLOAD","REV_AT_EPOCH":"4528","MEAN_MOTION_DOT":"-0.00001906","APOAPSIS":"548.754","TLE_LINE2":"2 47756  53.0564 276.0526 0002156  70.5632 289.5589 15.06384466 45287","OBJECT_NAME":"STARLINK-2174","SEMIMAJOR_AXIS":"6925.396","NORAD_CAT_ID":"47756","PERIOD":"95.593","MEAN_MOTION":"15.06384466","FILE":"3247638","RA_OF_ASC_NODE":"276.0526","COUNTRY_CODE":"US","CLASSIFICATION_TYPE":"U","MEAN_ANOMALY":"289.5589","RCS_SIZE":"LARGE","PERIAPSIS":"545.768","ARG_OF_PERICENTER":"70.5632","EPHEMERIS_TYPE":"0","OBJECT_ID":"2021-017AL","ELEMENT_SET_NO":"999","GP_ID":"192224107","BSTAR":"-0.00010913000000","MEAN_MOTION_DDOT":"0.0000000000000","TLE_LINE1":"1 47756U 21017AL  21356.67259683 -.00001906  00000-0 -10913-3 0  9998","REF_FRAME":"TEME"},{"INCLINATION":"53.0562","CENTER_NAME":"EARTH","TIME_SYSTEM":"UTC","LAUNCH_DATE":"2021-03-04","SITE":"AFETR","EPOCH":"2021-12-22T12:36:13.213152","DECAY_DATE":null,"MEAN_ELEMENT_THEORY":"SGP4","APOAPSIS":"548.565","TLE_LINE2":"2 47757  53.0562 276.7150 0001896  52.6777 307.4384 15.06387601 45262","MEAN_MOTION_DOT":"-0.00003859","REV_AT_EPOCH":"4526","ECCENTRICITY":"0.00018960","OBJECT_TYPE":"PAYLOAD","SEMIMAJOR_AXIS":"6925.387","OBJECT_NAME":"STARLINK-2175","RA_OF_ASC_NODE":"276.7150","FILE":"3247636","MEAN_MOTION":"15.06387601","NORAD_CAT_ID":"47757","PERIOD":"95.593","MEAN_ANOMALY":"307.4384","CLASSIFICATION_TYPE":"U","COUNTRY_CODE":"US","OBJECT_ID":"2021-017AM","ELEMENT_SET_NO":"999","PERIAPSIS":"545.939","ARG_OF_PERICENTER":"52.6777","EPHEMERIS_TYPE":"0","RCS_SIZE":"MEDIUM","REF_FRAME":"TEME","MEAN_MOTION_DDOT":"0.0000000000000","TLE_LINE1":"1 47757U 21017AM  21356.52515293 -.00003859  00000-0 -24038-3 0  9997","GP_ID":"192223625","BSTAR":"-0.00024038000000"},{"SEMIMAJOR_AXIS":"6898.061","OBJECT_NAME":"STARLINK-2176","MEAN_MOTION_DOT":"0.00043851","TLE_LINE2":"2 47758  53.0557 275.8992 0001006  44.1955 315.9118 15.15347363 45279","APOAPSIS":"520.620","OBJECT_TYPE":"PAYLOAD","ECCENTRICITY":"0.00010060","REV_AT_EPOCH":"4527","DECAY_DATE":null,"EPOCH":"2021-12-22T12:17:49.106688","SITE":"AFETR","MEAN_ELEMENT_THEORY":"SGP4","INCLINATION":"53.0557","TIME_SYSTEM":"UTC","LAUNCH_DATE":"2021-03-04","CENTER_NAME":"EARTH","REF_FRAME":"TEME","BSTAR":"0.00230030000000","GP_ID":"192224112","TLE_LINE1":"1 47758U 21017AN  21356.51237392  .00043851  00000-0  23003-2 0  9992","MEAN_MOTION_DDOT":"0.0000000000000","ELEMENT_SET_NO":"999","OBJECT_ID":"2021-017AN","RCS_SIZE":"LARGE","ARG_OF_PERICENTER":"44.1955","EPHEMERIS_TYPE":"0","PERIAPSIS":"519.232","MEAN_ANOMALY":"315.9118","COUNTRY_CODE":"US","CLASSIFICATION_TYPE":"U","FILE":"3247636","RA_OF_ASC_NODE":"275.8992","PERIOD":"95.028","NORAD_CAT_ID":"47758","MEAN_MOTION":"15.15347363"},{"INCLINATION":"53.0525","CENTER_NAME":"EARTH","LAUNCH_DATE":"2021-03-04","TIME_SYSTEM":"UTC","SITE":"AFETR","EPOCH":"2021-12-22T09:12:26.095104","DECAY_DATE":null,"MEAN_ELEMENT_THEORY":"SGP4","APOAPSIS":"393.403","TLE_LINE2":"2 47759  53.0525 239.3307 0001637  44.9010 315.2134 15.58398273 46444","MEAN_MOTION_DOT":"0.00195790","REV_AT_EPOCH":"4644","OBJECT_TYPE":"PAYLOAD","ECCENTRICITY":"0.00016370","SEMIMAJOR_AXIS":"6770.429","OBJECT_NAME":"STARLINK-2177","RA_OF_ASC_NODE":"239.3307","FILE":"3247523","MEAN_MOTION":"15.58398273","PERIOD":"92.403","NORAD_CAT_ID":"47759","MEAN_ANOMALY":"315.2134","CLASSIFICATION_TYPE":"U","COUNTRY_CODE":"US","ELEMENT_SET_NO":"999","OBJECT_ID":"2021-017AP","PERIAPSIS":"391.186","ARG_OF_PERICENTER":"44.9010","EPHEMERIS_TYPE":"0","RCS_SIZE":"LARGE","REF_FRAME":"TEME","MEAN_MOTION_DDOT":"0.0000000000000","TLE_LINE1":"1 47759U 21017AP  21356.38363536  .00195790  00000-0  24728-2 0  9993","GP_ID":"192219461","BSTAR":"0.00247280000000"},{"FILE":"3247523","RA_OF_ASC_NODE":"287.7387","PERIOD":"95.593","NORAD_CAT_ID":"47760","MEAN_MOTION":"15.06390870","MEAN_ANOMALY":"302.9845","COUNTRY_CODE":"US","CLASSIFICATION_TYPE":"U","ELEMENT_SET_NO":"999","OBJECT_ID":"2021-017AQ","RCS_SIZE":"LARGE","ARG_OF_PERICENTER":"57.1316","EPHEMERIS_TYPE":"0","PERIAPSIS":"546.003","REF_FRAME":"TEME","BSTAR":"-0.00014775000000","GP_ID":"192218209","TLE_LINE1":"1 47760U 21017AQ  21356.29200939 -.00002481  00000-0 -14775-3 0  9990","MEAN_MOTION_DDOT":"0.0000000000000","INCLINATION":"53.0583","LAUNCH_DATE":"2021-03-04","TIME_SYSTEM":"UTC","CENTER_NAME":"EARTH","DECAY_DATE":null,"EPOCH":"2021-12-22T07:00:29.611296","SITE":"AFETR","MEAN_ELEMENT_THEORY":"SGP4","MEAN_MOTION_DOT":"-0.00002481","TLE_LINE2":"2 47760  53.0583 287.7387 0001789  57.1316 302.9845 15.06390870 45740","APOAPSIS":"548.480","ECCENTRICITY":"0.00017890","OBJECT_TYPE":"PAYLOAD","REV_AT_EPOCH":"4574","SEMIMAJOR_AXIS":"6925.377","OBJECT_NAME":"STARLINK-2178"},{"COUNTRY_CODE":"US","CLASSIFICATION_TYPE":"U","MEAN_ANOMALY":"303.4822","PERIOD":"95.592","NORAD_CAT_ID":"47761","MEAN_MOTION":"15.06401078","FILE":"3247523","RA_OF_ASC_NODE":"276.7316","BSTAR":"-0.00002113600000","GP_ID":"192217958","TLE_LINE1":"1 47761U 21017AR  21356.52145930 -.00000597  00000-0 -21136-4 0  9992","MEAN_MOTION_DDOT":"0.0000000000000","REF_FRAME":"TEME","RCS_SIZE":"LARGE","ARG_OF_PERICENTER":"56.6359","EPHEMERIS_TYPE":"0","PERIAPSIS":"545.820","ELEMENT_SET_NO":"999","OBJECT_ID":"2021-017AR","MEAN_ELEMENT_THEORY":"SGP4","DECAY_DATE":null,"EPOCH":"2021-12-22T12:30:54.083520","SITE":"AFETR","TIME_SYSTEM":"UTC","LAUNCH_DATE":"2021-03-04","CENTER_NAME":"EARTH","INCLINATION":"53.0543","OBJECT_NAME":"STARLINK-2179","SEMIMAJOR_AXIS":"6925.345","OBJECT_TYPE":"PAYLOAD","ECCENTRICITY":"0.00020070","REV_AT_EPOCH":"4589","MEAN_MOTION_DOT":"-0.00000597","TLE_LINE2":"2 47761  53.0543 276.7316 0002007  56.6359 303.4822 15.06401078 45892","APOAPSIS":"548.600"},{"SEMIMAJOR_AXIS":"6925.383","OBJECT_NAME":"STARLINK-2180","TLE_LINE2":"2 47762  53.0539 290.4316 0002104  56.2674 303.8515 15.06388920 45090","APOAPSIS":"548.705","MEAN_MOTION_DOT":"-0.00002302","REV_AT_EPOCH":"4509","OBJECT_TYPE":"PAYLOAD","ECCENTRICITY":"0.00021040","SITE":"AFETR","DECAY_DATE":null,"EPOCH":"2021-12-22T19:29:32.300160","MEAN_ELEMENT_THEORY":"SGP4","INCLINATION":"53.0539","CENTER_NAME":"EARTH","LAUNCH_DATE":"2021-03-04","TIME_SYSTEM":"UTC","REF_FRAME":"TEME","TLE_LINE1":"1 47762U 21017AS  21356.81217940 -.00002302  00000-0 -13569-3 0  9992","MEAN_MOTION_DDOT":"0.0000000000000","BSTAR":"-0.00013569000000","GP_ID":"192224135","ELEMENT_SET_NO":"999","OBJECT_ID":"2021-017AS","ARG_OF_PERICENTER":"56.2674","EPHEMERIS_TYPE":"0","PERIAPSIS":"545.790","RCS_SIZE":"LARGE","MEAN_ANOMALY":"303.8515","CLASSIFICATION_TYPE":"U","COUNTRY_CODE":"US","RA_OF_ASC_NODE":"290.4316","FILE":"3247688","MEAN_MOTION":"15.06388920","PERIOD":"95.593","NORAD_CAT_ID":"47762"},{"SEMIMAJOR_AXIS":"6925.392","OBJECT_NAME":"STARLINK-2181","APOAPSIS":"548.554","TLE_LINE2":"2 47763  53.0641 280.3109 0001873  54.4281 305.6883 15.06385874 45238","MEAN_MOTION_DOT":"-0.00002270","REV_AT_EPOCH":"4523","OBJECT_TYPE":"PAYLOAD","ECCENTRICITY":"0.00018730","SITE":"AFETR","EPOCH":"2021-12-22T19:53:27.091392","DECAY_DATE":null,"MEAN_ELEMENT_THEORY":"SGP4","INCLINATION":"53.0641","CENTER_NAME":"EARTH","LAUNCH_DATE":"2021-03-04","TIME_SYSTEM":"UTC","REF_FRAME":"TEME","MEAN_MOTION_DDOT":"0.0000000000000","TLE_LINE1":"1 47763U 21017AT  21356.82878578 -.00002270  00000-0 -13356-3 0  9992","GP_ID":"192222007","BSTAR":"-0.00013356000000","OBJECT_ID":"2021-017AT","ELEMENT_SET_NO":"999","PERIAPSIS":"545.960","ARG_OF_PERICENTER":"54.4281","EPHEMERIS_TYPE":"0","RCS_SIZE":"LARGE","MEAN_ANOMALY":"305.6883","CLASSIFICATION_TYPE":"U","COUNTRY_CODE":"US","RA_OF_ASC_NODE":"280.3109","FILE":"3247571","MEAN_MOTION":"15.06385874","PERIOD":"95.593","NORAD_CAT_ID":"47763"},{"COUNTRY_CODE":"US","CLASSIFICATION_TYPE":"U","MEAN_ANOMALY":"302.1821","NORAD_CAT_ID":"47764","PERIOD":"95.592","MEAN_MOTION":"15.06394821","FILE":"3247688","RA_OF_ASC_NODE":"290.7844","GP_ID":"192224133","BSTAR":"0.00008618000000","MEAN_MOTION_DDOT":"0.0000000000000","TLE_LINE1":"1 47764U 21017AU  21356.73202032  .00001002  00000-0  86180-4 0  9995","REF_FRAME":"TEME","RCS_SIZE":"LARGE","PERIAPSIS":"545.806","ARG_OF_PERICENTER":"57.9367","EPHEMERIS_TYPE":"0","OBJECT_ID":"2021-017AU","ELEMENT_SET_NO":"999","MEAN_ELEMENT_THEORY":"SGP4","EPOCH":"2021-12-22T17:34:06.555648","DECAY_DATE":null,"SITE":"AFETR","TIME_SYSTEM":"UTC","LAUNCH_DATE":"2021-03-04","CENTER_NAME":"EARTH","INCLINATION":"53.0541","OBJECT_NAME":"STARLINK-2182","SEMIMAJOR_AXIS":"6925.364","OBJECT_TYPE":"PAYLOAD","ECCENTRICITY":"0.00020560","REV_AT_EPOCH":"4508","MEAN_MOTION_DOT":"0.00001002","APOAPSIS":"548.653","TLE_LINE2":"2 47764  53.0541 290.7844 0002056  57.9367 302.1821 15.06394821 45085"}];
